Model Marker Errors from IK
version=1
nRows=202
nColumns=4
inDegrees=no
endheader
time	total_squared_error	marker_error_RMS	marker_error_max
      0.00000000	      0.00229608	      0.00889805	      0.01742218
      0.01886790	      0.00220234	      0.00871452	      0.01678645
      0.03773590	      0.00235911	      0.00901935	      0.01770115
      0.05660380	      0.00254554	      0.00936896	      0.02082447
      0.07547170	      0.00279619	      0.00981939	      0.02469401
      0.09433960	      0.00338176	      0.01079873	      0.02896325
      0.11320760	      0.00427444	      0.01214061	      0.03379829
      0.13207550	      0.00531487	      0.01353777	      0.03827321
      0.15094340	      0.00577985	      0.01411755	      0.03994136
      0.16981130	      0.00575992	      0.01409318	      0.03749365
      0.18867920	      0.00541834	      0.01366891	      0.03345739
      0.20754720	      0.00562968	      0.01393295	      0.02518948
      0.22641510	      0.00673442	      0.01523881	      0.03366613
      0.24528300	      0.00897313	      0.01759029	      0.03678249
      0.26415090	      0.01074513	      0.01924894	      0.03995611
      0.28301890	      0.01107985	      0.01954645	      0.04043773
      0.30188680	      0.00970700	      0.01829547	      0.03990003
      0.32075470	      0.00940813	      0.01801162	      0.04002436
      0.33962260	      0.00826144	      0.01687831	      0.03972110
      0.35849060	      0.00742796	      0.01600426	      0.03863127
      0.37735850	      0.00666416	      0.01515911	      0.03723444
      0.39622640	      0.00598246	      0.01436286	      0.03356728
      0.41509430	      0.00530255	      0.01352207	      0.02976839
      0.43396230	      0.00449320	      0.01244740	      0.02560371
      0.45283020	      0.00363324	      0.01119304	      0.02213661
      0.47169810	      0.00336850	      0.01077752	      0.02083943
      0.49056600	      0.00301875	      0.01020269	      0.02003986
      0.50943400	      0.00285455	      0.00992132	      0.02024361
      0.52830190	      0.00280577	      0.00983620	      0.02006326
      0.54716980	      0.00276944	      0.00977230	      0.02006592
      0.56603770	      0.00276209	      0.00975933	      0.01985349
      0.58490570	      0.00264602	      0.00955207	      0.01854708
      0.60377360	      0.00256112	      0.00939759	      0.01772054
      0.62264150	      0.00271474	      0.00967532	      0.01873418
      0.64150940	      0.00285554	      0.00992305	      0.01940138
      0.66037740	      0.00311210	      0.01035924	      0.02109683
      0.67924530	      0.00321660	      0.01053172	      0.02121454
      0.69811320	      0.00337320	      0.01078505	      0.02153708
      0.71698110	      0.00350593	      0.01099519	      0.02189695
      0.73584910	      0.00353008	      0.01103299	      0.02171028
      0.75471700	      0.00353542	      0.01104134	      0.02143001
      0.77358490	      0.00353943	      0.01104760	      0.02125978
      0.79245280	      0.00352206	      0.01102046	      0.02086027
      0.81132080	      0.00329661	      0.01066191	      0.01995759
      0.83018870	      0.00322645	      0.01054784	      0.02010013
      0.84905660	      0.00303934	      0.01023742	      0.02024652
      0.86792450	      0.00292087	      0.01003593	      0.02035595
      0.88679240	      0.00270792	      0.00966316	      0.01984902
      0.90566040	      0.00263778	      0.00953719	      0.01980634
      0.92452830	      0.00264965	      0.00955863	      0.01978610
      0.94339620	      0.00271720	      0.00967969	      0.02005186
      0.96226410	      0.00279852	      0.00982348	      0.02051338
      0.98113210	      0.00282031	      0.00986165	      0.02058915
      1.00000000	      0.00278369	      0.00979741	      0.02048639
      1.01886790	      0.00267719	      0.00960816	      0.02055480
      1.03773590	      0.00258061	      0.00943327	      0.02055460
      1.05660380	      0.00249135	      0.00926870	      0.02037248
      1.07547170	      0.00247626	      0.00924058	      0.01990702
      1.09433960	      0.00247686	      0.00924169	      0.01967985
      1.11320760	      0.00254392	      0.00936597	      0.01952733
      1.13207550	      0.00255656	      0.00938921	      0.01886153
      1.15094340	      0.00260244	      0.00947309	      0.01829322
      1.16981130	      0.00268383	      0.00962008	      0.01898975
      1.18867930	      0.00263676	      0.00953533	      0.01920806
      1.20754720	      0.00270504	      0.00965801	      0.01980080
      1.22641510	      0.00273255	      0.00970699	      0.02032015
      1.24528300	      0.00269676	      0.00964323	      0.02063878
      1.26415090	      0.00265150	      0.00956195	      0.02080898
      1.28301890	      0.00269447	      0.00963912	      0.02138572
      1.30188680	      0.00271375	      0.00967355	      0.02187370
      1.32075470	      0.00284916	      0.00991196	      0.02260210
      1.33962260	      0.00302171	      0.01020769	      0.02312530
      1.35849060	      0.00318260	      0.01047592	      0.02320935
      1.37735850	      0.00320663	      0.01051539	      0.02359999
      1.39622640	      0.00327476	      0.01062651	      0.02381250
      1.41509430	      0.00331566	      0.01069267	      0.02383393
      1.43396230	      0.00348181	      0.01095731	      0.02396546
      1.45283020	      0.00368807	      0.01127718	      0.02384734
      1.47169810	      0.00393115	      0.01164288	      0.02310269
      1.49056600	      0.00407476	      0.01185365	      0.02227591
      1.50943400	      0.00405123	      0.01181938	      0.02134452
      1.52830190	      0.00397603	      0.01170917	      0.02072819
      1.54716980	      0.00382730	      0.01148808	      0.02002568
      1.56603770	      0.00355510	      0.01107202	      0.01971050
      1.58490570	      0.00333609	      0.01072556	      0.01965860
      1.60377360	      0.00311197	      0.01035903	      0.01923977
      1.62264150	      0.00286525	      0.00993991	      0.01869246
      1.64150940	      0.00280938	      0.00984252	      0.01852028
      1.66037740	      0.00278290	      0.00979602	      0.01864256
      1.67924530	      0.00271191	      0.00967028	      0.01920877
      1.69811320	      0.00276299	      0.00976091	      0.01943854
      1.71698110	      0.00280257	      0.00983059	      0.01976052
      1.73584910	      0.00277087	      0.00977482	      0.01975280
      1.75471700	      0.00277437	      0.00978100	      0.01984102
      1.77358490	      0.00283865	      0.00989367	      0.01984957
      1.79245280	      0.00292096	      0.01003607	      0.02081260
      1.81132070	      0.00296175	      0.01010591	      0.02138163
      1.83018870	      0.00299717	      0.01016615	      0.02193632
      1.84905660	      0.00316461	      0.01044626	      0.02317790
      1.86792450	      0.00317723	      0.01046707	      0.02343664
      1.88679240	      0.00314779	      0.01041847	      0.02319786
      1.90566040	      0.00316771	      0.01045139	      0.02274416
      1.92452830	      0.00309383	      0.01032879	      0.02207820
      1.94339620	      0.00303365	      0.01022783	      0.02167052
      1.96226410	      0.00303239	      0.01022571	      0.02149786
      1.98113210	      0.00303391	      0.01022827	      0.02149579
      2.00000000	      0.00303503	      0.01023015	      0.02139406
      2.01886790	      0.00302891	      0.01021984	      0.02133311
      2.03773580	      0.00301237	      0.01019190	      0.02125161
      2.05660380	      0.00304472	      0.01024648	      0.02165151
      2.07547170	      0.00303034	      0.01022226	      0.02164417
      2.09433960	      0.00302175	      0.01020776	      0.02162665
      2.11320750	      0.00299346	      0.01015986	      0.02157635
      2.13207550	      0.00299792	      0.01016742	      0.02153949
      2.15094340	      0.00298802	      0.01015063	      0.02145021
      2.16981130	      0.00299224	      0.01015778	      0.02137415
      2.18867920	      0.00297662	      0.01013125	      0.02125373
      2.20754720	      0.00297120	      0.01012201	      0.02113441
      2.22641510	      0.00297634	      0.01013076	      0.02119362
      2.24528300	      0.00298099	      0.01013868	      0.02110928
      2.26415090	      0.00298603	      0.01014724	      0.02113193
      2.28301890	      0.00297490	      0.01012832	      0.02111201
      2.30188680	      0.00297459	      0.01012779	      0.02112515
      2.32075470	      0.00296920	      0.01011861	      0.02112325
      2.33962260	      0.00297335	      0.01012568	      0.02121459
      2.35849060	      0.00298244	      0.01014114	      0.02114791
      2.37735850	      0.00298684	      0.01014862	      0.02118629
      2.39622640	      0.00299254	      0.01015831	      0.02125458
      2.41509430	      0.00300291	      0.01017589	      0.02137176
      2.43396230	      0.00297555	      0.01012942	      0.02114988
      2.45283020	      0.00297602	      0.01013022	      0.02122452
      2.47169810	      0.00295342	      0.01009169	      0.02102198
      2.49056600	      0.00297222	      0.01012375	      0.02097516
      2.50943400	      0.00296542	      0.01011216	      0.02096593
      2.52830190	      0.00297775	      0.01013316	      0.02096775
      2.54716980	      0.00298517	      0.01014579	      0.02083400
      2.56603770	      0.00298753	      0.01014978	      0.02091230
      2.58490570	      0.00299823	      0.01016794	      0.02085979
      2.60377360	      0.00299124	      0.01015608	      0.02085772
      2.62264150	      0.00296872	      0.01011779	      0.02058216
      2.64150940	      0.00300076	      0.01017225	      0.02093082
      2.66037740	      0.00300265	      0.01017545	      0.02080028
      2.67924530	      0.00302697	      0.01021656	      0.02081893
      2.69811320	      0.00305122	      0.01025742	      0.02082768
      2.71698110	      0.00299513	      0.01016269	      0.02088938
      2.73584910	      0.00300512	      0.01017963	      0.02083034
      2.75471700	      0.00300646	      0.01018190	      0.02086325
      2.77358490	      0.00301306	      0.01019307	      0.02093122
      2.79245280	      0.00301387	      0.01019444	      0.02085838
      2.81132080	      0.00303371	      0.01022793	      0.02105872
      2.83018870	      0.00305156	      0.01025798	      0.02105674
      2.84905660	      0.00305920	      0.01027082	      0.02100844
      2.86792450	      0.00307051	      0.01028979	      0.02096051
      2.88679250	      0.00305425	      0.01026251	      0.02109363
      2.90566040	      0.00305374	      0.01026165	      0.02103001
      2.92452830	      0.00305256	      0.01025967	      0.02094711
      2.94339620	      0.00306224	      0.01027591	      0.02097405
      2.96226420	      0.00306439	      0.01027952	      0.02092311
      2.98113210	      0.00307841	      0.01030301	      0.02104312
      3.00000000	      0.00307935	      0.01030458	      0.02104337
      3.01886790	      0.00307848	      0.01030313	      0.02098086
      3.03773580	      0.00309005	      0.01032247	      0.02105317
      3.05660380	      0.00308484	      0.01031376	      0.02097696
      3.07547170	      0.00309822	      0.01033611	      0.02103223
      3.09433960	      0.00309074	      0.01032363	      0.02096511
      3.11320750	      0.00309214	      0.01032597	      0.02093309
      3.13207550	      0.00310291	      0.01034394	      0.02114352
      3.15094340	      0.00309940	      0.01033808	      0.02109345
      3.16981130	      0.00310304	      0.01034415	      0.02106074
      3.18867920	      0.00311386	      0.01036217	      0.02106368
      3.20754720	      0.00311574	      0.01036529	      0.02107249
      3.22641510	      0.00311818	      0.01036935	      0.02115727
      3.24528300	      0.00311114	      0.01035764	      0.02112445
      3.26415090	      0.00312888	      0.01038713	      0.02119250
      3.28301890	      0.00312259	      0.01037668	      0.02120573
      3.30188680	      0.00310011	      0.01033926	      0.02105698
      3.32075470	      0.00309991	      0.01033893	      0.02116676
      3.33962260	      0.00310922	      0.01035443	      0.02120024
      3.35849060	      0.00310255	      0.01034333	      0.02100220
      3.37735850	      0.00311084	      0.01035715	      0.02102138
      3.39622640	      0.00312055	      0.01037329	      0.02102603
      3.41509430	      0.00312589	      0.01038216	      0.02101950
      3.43396230	      0.00313997	      0.01040552	      0.02103955
      3.45283020	      0.00313618	      0.01039923	      0.02104246
      3.47169810	      0.00314639	      0.01041615	      0.02099984
      3.49056600	      0.00313591	      0.01039879	      0.02094852
      3.50943400	      0.00314868	      0.01041994	      0.02097624
      3.52830190	      0.00314553	      0.01041473	      0.02097240
      3.54716980	      0.00312984	      0.01038872	      0.02113410
      3.56603770	      0.00312206	      0.01037579	      0.02110423
      3.58490570	      0.00311491	      0.01036391	      0.02103900
      3.60377360	      0.00311218	      0.01035937	      0.02105411
      3.62264150	      0.00309569	      0.01033188	      0.02103231
      3.64150940	      0.00309848	      0.01033655	      0.02106860
      3.66037740	      0.00310439	      0.01034640	      0.02110350
      3.67924530	      0.00310402	      0.01034578	      0.02107326
      3.69811320	      0.00310372	      0.01034528	      0.02104653
      3.71698110	      0.00311370	      0.01036190	      0.02108411
      3.73584910	      0.00312018	      0.01037268	      0.02097220
      3.75471700	      0.00311526	      0.01036450	      0.02101664
      3.77358490	      0.00312832	      0.01038619	      0.02104454
      3.79245280	      0.00313211	      0.01039248	      0.02103913
